name,address_line1,city,state,zip,website_url,weitz_cec_part,community_type,k12_level,mission_area,mission_type,community_partner
75 North,2112 North 30th Street,Omaha,NE,68111,http://www.seventyfivenorth.org/about-75-north/,No,Nonprofit,N/A,Economic Sufficiency,Primary,75 North
A Time to Heal (ATTH),"6400 South, University Drive Road North",Omaha,NE,68182,http://atimetohealfoundation.org/,Yes,Nonprofit,N/A,Health and Wellness,Primary,A Time to Heal (ATTH)
AARP,1941 S 42nd St,Omaha,NE,68105,local.aarp.org/omahane,No,Nonprofit,N/A,Health and Wellness,Primary,AARP
Abide Network,3223 N 45th St,Omaha,NE,68104,www.abideomaha.org,No,Nonprofit,N/A,Economic Sufficiency,Primary,Abide Network
Aksarben Senior Center,1330 S 70th st,Omaha,NE,68106,aksarbenseniorliving.com,No,Nonprofit,N/A,Health and Wellness,Primary,Aksarben Senior Center
Aksarben-Elmwood Neighborhood Association,1500 S 60th Street,Omaha,NE,68106,https://aepna.org/,No,Nonprofit,N/A,Social Justice,Primary,Aksarben-Elmwood Neighborhood Association
Alliance for a Better Omaha,10525 J St.,Omaha,NE,68127,togetheromaha.org,No,Nonprofit,N/A,Economic Sufficiency,Primary,Alliance for a Better Omaha
"Alzheimer's Association, Nebraska Chapter",11711 Arbor St #110,Omaha,NE,68114,https://www.alz.org/nebraska/,No,Nonprofit,N/A,Health and Wellness,Primary,"Alzheimer's Association, Nebraska Chapter"
American Cancer Society: Hope Lodge,8030 Farnam Drive,Omaha,NE,68114,https://www.cancer.org/treatment/support-programs-and-services/patient-lodging/hope-lodge/omaha.html,No,Nonprofit,N/A,Health and Wellness,Primary,American Cancer Society: Hope Lodge
American Legion 373,7380 Q Street,Ralston,NE,68127,https://centennial.legion.org/nebraska/post373,No,Nonprofit,N/A,Health and Wellness,Primary,American Legion 373
American Lung Association in Nebraska,11225 Davenport Street #101,Omaha,NE,68154,https://www.lung.org/about-us/local-associations/nebraska.html,No,Nonprofit,N/A,Health and Wellness,Primary,American Lung Association in Nebraska
American Red Cross,2912 S 80th Ave,Omaha,NE,68182,https://www.redcross.org/donate/disaster-donations.html/,No,Nonprofit,N/A,Health and Wellness,Primary,American Red Cross
Apostle Nursing Home Health Care,14511 Borman St,Omaha,NE,68138,http://www.spenddownnebraska.com/,No,Nonprofit,N/A,Health and Wellness,Primary,Apostle Nursing Home Health Care
Arts for All,4411 S 24th St,Omaha,NE,68107,www.artsforallomaha.org,No,Nonprofit,N/A,Educational Support,Primary,Arts for All
Autism Society of NE,9012 Q St.,Omaha,NE,68127,autismcenterfornebraska.org,No,Nonprofit,N/A,Health and Wellness,Primary,Autism Society of NE
Avenue Scholars Foundation,7101 Mercy Rd Ste 240,Omaha,NE,68106,http://www.avescholars.org/,No,Nonprofit,N/A,Educational Support,Primary,Avenue Scholars Foundation
Bard College,30 Campus Rd,Annandale-On-Hudson,NY,12504,http://www.bard.edu/,No,Higher Education Institution,College,Educational Support,Primary,Bard College
Bemis Center for Contemporary Arts,724 S 12th St,Omaha,NE,68102,http://www.bemiscenter.org/,No,Nonprofit,N/A,Educational Support,Primary,Bemis Center for Contemporary Arts
Bennington Elementary School,11620 N 156th St,Bennington,NE,68007,www.benningtonschools.org,No,K-12,Primary,Educational Support,Primary,Bennington Elementary School
Benson Area Refugee Taskforce (BART),5410 Corby Street,Omaha,NE,68104,http://www.bensonrefugeetf.com/,No,Nonprofit,N/A,International Service,Primary,Benson Area Refugee Taskforce (BART)
Benson Plant Rescue,7224 Maple Street,Omaha,NE,68134,https://www.facebook.com/BensonPlantRescue/,No,Nonprofit,N/A,Environmental Stewardship,Primary,Benson Plant Rescue
Bergan Mercy Hospital,7500 Mercy Rd,Omaha,NE,68124,https://www.chihealth.com/en/location-search/creighton-bergan.html,No,Nonprofit,N/A,Health and Wellness,Primary,Bergan Mercy Hospital
Beveridge Magnet Middle School,1616 S 120th St,Omaha,NE,68144,beveridge.ops.org,No,K-12,Primary,Educational Support,Primary,Beveridge Magnet Middle School
"Blue Valley Community Action, Inc",620 5th St,Fairbury,NE,68352,www.bvca.net,No,Nonprofit,N/A,Social Justice,Primary,"Blue Valley Community Action, Inc"
Boys and Girls Club of Council Bluffs,815 N 16th St,Council Bluffs,IA,51501,http://bgcomaha.org/locations/council-bluffs/,No,Nonprofit,N/A,Educational Support,Primary,Boys and Girls Club of Council Bluffs
Boys and Girls Club of the Midlands,2610 Hamilton St,Omaha,NE,68131,http://www.bgcomaha.org/,No,Nonprofit,N/A,Educational Support,Primary,Boys and Girls Club of the Midlands
Boys Town Day School,14124 Norton Dr,Boys Town,NE,68010,,No,K-12,Primary,Educational Support,Primary,Boys Town Day School
Brigit Saint Brigit Theatre Company (BSB),421 S 36th Street,Omaha,NE,68131,https://www.bsbtheatre.com/,No,Nonprofit,N/A,Educational Support,Primary,Brigit Saint Brigit Theatre Company (BSB)
Brownell Talbot,400 N Happy Hollow Blvd,Omaha,NE,68132,,No,K-12,Early Childhood,Educational Support,Primary,Brownell Talbot
Buford Foundation,13303 F St,Omaha,NE,68137,https://campconfidence.org/,Yes,Nonprofit,N/A,Educational Support,Primary,Buford Foundation
Butte Humane Society,2580 Fair St,Chico,CA,95928,,No,Nonprofit,N/A,Environmental Stewardship,Primary,Butte Humane Society
Calvary Omaha,1010 S 144th St,Omaha,NE,68144,,No,Nonprofit,N/A,Educational Support,Primary,Calvary Omaha
Campus Compact for the Great Plains,45 Temple Place,Boston,MA,2111,http://greatplains.compact.org/,Yes,Nonprofit,N/A,Educational Support,Primary,Campus Compact for the Great Plains
Catholic Charities - Phoenix House,300 W Broadway # 2223,Council Bluffs,IA,51503,,No,Nonprofit,N/A,Health and Wellness,Primary,Catholic Charities - Phoenix House
Chabad-Lubavitch of Nebraska Inc.,1866 S 120th Street,Omaha,NE,68144,,No,Nonprofit,N/A,Social Justice,Primary,Chabad-Lubavitch of Nebraska Inc.
Charles Drew Health Center,2915 Grant St,Omaha,NE,68111,,No,Nonprofit,N/A,Health and Wellness,Primary,Charles Drew Health Center
Childrens Scholarship Fund of Omaha,7101 Mercy Rd Ste 305,Omaha,NE,68106,,No,Nonprofit,N/A,Educational Support,Primary,Childrens Scholarship Fund of Omaha
Citizen?s Climate Lobby,1330 Orange Ave # 300,Coronado,CA,92118,https://citizensclimatelobby.org/chapters/NE_Omaha/,No,Nonprofit,N/A,Educational Support,Primary,Citizen?s Climate Lobby
City of Omaha,1819 Farnam Street,Omaha,NE,68183,https://www.cityofomaha.org/,No,Government Agency,N/A,Economic Sufficiency,Primary,City of Omaha
City of Omaha: Mandan Park,6215 South 13th Street,Omaha,NE,68107,http://parks.cityofomaha.org/contact,No,Nonprofit,N/A,Environmental Stewardship,Primary,City of Omaha: Mandan Park
City Sprouts,4002 Seward St,Omaha,NE,68111,omahasprouts.org,No,Nonprofit,N/A,Environmental Stewardship,Primary,City Sprouts
Civic Nebraska,1327 H St Ste. 102,Lincoln,NE,68508,http://nereform.org/,Yes,Nonprofit,N/A,Educational Support,Primary,Civic Nebraska
Claremont School of Theology,1325 N College Ave,Claremont,CA,91711,https://cst.edu/,No,Higher Education Institution,College,Educational Support,Primary,Claremont School of Theology
Clemson University,230 Kappa Street,Clemson,SC,29634,http://www.clemson.edu/,No,Higher Education Institution,College,Educational Support,Primary,Clemson University
Coalition for a Strong Nebraska,"215 Centennial Mall South, Suite 200",Lincoln,NE,68508,,No,Nonprofit,N/A,Social Justice,Primary,Coalition for a Strong Nebraska
Coalition RX,"6400 South, University Drive Road North",Omaha,NE,68182,http://coalitionrx.org/,Yes,Nonprofit,N/A,Health and Wellness,Primary,Coalition RX
College of Saint Mary,7000 Mercy Rd,Omaha,NE,68106,http://www.csm.edu/,No,Higher Education Institution,College,Educational Support,Primary,College of Saint Mary
"Common Seed Soil Library, Omaha Public Library (OPL)",215 S 15th St,Omaha,NE,68102,https://omahalibrary.org/welcome-to-the-common-soil-library/,No,Nonprofit,N/A,Environmental Stewardship,Primary,"Common Seed Soil Library, Omaha Public Library (OPL)"
Common Sense Media: Omaha Public Schools,650 Townsend Suite 435,San Francisco,CA,94103,https://commonsensemedia.org,No,K-12,Secondary,Educational Support,Primary,Common Sense Media: Omaha Public Schools
Community Action of Nebraska,210 O Street No 100,Lincoln,NE,68508,,No,Nonprofit,N/A,Economic Sufficiency,Primary,Community Action of Nebraska
Community Action Partnership of Lancaster and Saunders Counties,210 O St,Lincoln,NE,68508,,No,Nonprofit,N/A,Economic Sufficiency,Primary,Community Action Partnership of Lancaster and Saunders Counties
Community Action Partnership of Western Nebraska: Foster Grandparent Program in Gering,3350 10th St,Gering,NE,69341,,No,Nonprofit,N/A,Economic Sufficiency,Primary,Community Action Partnership of Western Nebraska: Foster Grandparent Program in Gering
Completely Kids,2566 St Marys Ave,Omaha,NE,68105,completelykids.org,No,Nonprofit,N/A,Educational Support,Primary,Completely Kids
Court Appointed Special Advocates in Douglas County,2412 St Marys Ave,Omaha,NE,68105,,No,Nonprofit,N/A,Social Justice,Primary,Court Appointed Special Advocates in Douglas County
Creighton University,2500 California Plaza,Omaha,NE,68178,https://www.creighton.edu/trio/,No,Higher Education Institution,College,Educational Support,Primary,Creighton University
Cultural Enrichment Fund,301 Market St # 5,Harrisburg,PA,17101,https://culturalenrichmentfund.org/,No,Nonprofit,N/A,Educational Support,Primary,Cultural Enrichment Fund
D2 Center,1841 S 42nd St,Omaha,NE,68105,d2center.org,No,Nonprofit,N/A,Educational Support,Primary,D2 Center
Do Space,7205 Dodge St,Omaha,NE,68114,,No,Nonprofit,N/A,Educational Support,Primary,Do Space
DoD - Defense POW/MIA Accounting Agency,1400 Defense Pentagon,Washington,DC,20301-1400,www.defense.gov/Resources/Contact-DoD/source/nav/,No,Nonprofit,N/A,Social Justice,Primary,DoD - Defense POW/MIA Accounting Agency
Douglas County,"1819 Farnam Street, LC2",Omaha,NE,68183,,no,Government Agency,N/A,Economic Sufficiency,Primary,Douglas County
Douglas County Department of Health & Human Services,1111 S 41st St,Omaha,NE,68105,dhhs.ne.gov,No,Government Agency,N/A,Health and Wellness,Primary,Douglas County Department of Health & Human Services
Douglas County Health Department,1101 S 42nd St,Omaha,NE,N/A,https://www.douglascountyhealth.com/,No,Government Agency,N/A,Health and Wellness,Primary,Douglas County Health Department
Douglas County Historial Society,5730 N. 30th Street #11B,Omaha,NE,68111,,No,Government Agency,N/A,Educational Support,Primary,Douglas County Historial Society
Down Syndrome Alliance of the Midlands (DSM),"6400 South, University Drive Road North",Omaha,NE,68182,http://www.dsamidlands.org/,Yes,Nonprofit,N/A,Health and Wellness,Primary,Down Syndrome Alliance of the Midlands (DSM)
Dreamweaver Foundation,13321 California Street,Omaha,NE,68154,,No,Nonprofit,N/A,Health and Wellness,Primary,Dreamweaver Foundation
Dundee Elementary,310 North 51St Street,Omaha,NE,68132-2846,,No,K-12,Primary,Educational Support,Primary,Dundee Elementary
Durham Museum,801 S 10th St,Omaha,NE,68108,durhammuseum.org,No,Nonprofit,N/A,Educational Support,Primary,Durham Museum
Eastern Nebraska 4-H Camp,21520 W Hwy 31,Gretna,NE,68028,,No,Nonprofit,N/A,Educational Support,Primary,Eastern Nebraska 4-H Camp
Eastern Nebraska Community Action Partnership,2406 Fowler Ave,Omaha,NE,68111,,No,Nonprofit,N/A,Economic Sufficiency,Primary,Eastern Nebraska Community Action Partnership
Eastern Nebraska Office on Aging: Foster Grandparent Program in Omaha,4780 S. 131st Street,Omaha,NE,68137,,No,Nonprofit,N/A,Economic Sufficiency,Primary,Eastern Nebraska Office on Aging: Foster Grandparent Program in Omaha
Eastern Nebraska Office on Aging: Ombudsman Advocate Program in Omaha,4780 S. 131st Street,Omaha,NE,68137,,No,Nonprofit,N/A,Economic Sufficiency,Primary,Eastern Nebraska Office on Aging: Ombudsman Advocate Program in Omaha
Eastern Nebraska Office on Aging: Senior Companions Program in Omaha,4780 S. 131st Street,Omaha,NE,68137,,No,Nonprofit,N/A,Economic Sufficiency,Primary,Eastern Nebraska Office on Aging: Senior Companions Program in Omaha
Eastern Nebraska Veterans Home,12505 South 40th Street,Bellevue,NE,68123,https://veterans.nebraska.gov/eastern-nebraska-veterans-home,No,Nonprofit,N/A,Health and Wellness,Primary,Eastern Nebraska Veterans Home
El Museo Latino,4701 S 25th St,Omaha,NE,68107,www.elmuseolatino.org,No,Nonprofit,N/A,International Service,Primary,El Museo Latino
Environmental Finance Center,250 E. Franklin Street,Chapel Hill,NC,27514,https://efc.sog.unc.edu/,No,Nonprofit,N/A,Educational Support,Primary,Environmental Finance Center
Environmental Protection Agency (EPA Region 7),11201 Renner Blvd.,Lenexa,KA,66219,https://www.epa.gov/aboutepa/epa-region-7-midwest,No,Nonprofit,N/A,Environmental Stewardship,Primary,Environmental Protection Agency (EPA Region 7)
Film Streams,1640 Mike Fahey St,Omaha,NE,68102,filmstreams.org,No,Nonprofit,N/A,Educational Support,Primary,Film Streams
First Responders Foundation,809 N 96th Street,Omaha,NE,68114,https://firstrespondersomaha.org/,No,Nonprofit,N/A,Economic Sufficiency,Primary,First Responders Foundation
Fontenelle Elementary School,3905 N 52nd St,Omaha,NE,68104,fontenelle.ops.org,No,K-12,Primary,Educational Support,Primary,Fontenelle Elementary School
Fontenelle Forest,1111 Bellevue Blvd,Bellevue,NE,68005,fontanelleforest.org,No,Nonprofit,N/A,Environmental Stewardship,Primary,Fontenelle Forest
Food Bank for the Heartland,10525 J Street,Omaha,NE,68127,,No,Nonprofit,N/A,Economic Sufficiency,Primary,Food Bank for the Heartland
Foster Grandparents Program,4223 Center St,Omaha,NE,68105,enoa.org,No,Nonprofit,N/A,Economic Sufficiency,Primary,Foster Grandparents Program
Frank Stoysich Meats,5170 Q St,Omaha,NE,68117,frankstoysichmeats.com,No,Nonprofit,N/A,Health and Wellness,Primary,Frank Stoysich Meats
George Washington University,"2121 Eye Street, NW",Washington,DC,20052,https://www.gwu.edu/,No,Higher Education Institution,College,Educational Support,Primary,George Washington University
Girl Scouts Spirit of Nebraska,2121 S 44th St,Omaha,NE,68105,http://www.girlscoutsnebraska.org/,Yes,Nonprofit,N/A,Educational Support,Primary,Girl Scouts Spirit of Nebraska
Girls Inc,2811 N 45th Street,Omaha,NE,68104,,No,Nonprofit,N/A,Educational Support,Primary,Girls Inc
"Gotta Be Me, Inc",5108 Pine Street,Omaha,NE,68106,,No,Nonprofit,N/A,Health and Wellness,Primary,"Gotta Be Me, Inc"
Greater Birmingham Humane Society,300 Snow Dr,Birmingham,AL,35209,,No,Nonprofit,N/A,Environmental Stewardship,Primary,Greater Birmingham Humane Society
Greater Omaha Attendance and Learning Services,3215 Cuming St,Omaha,NE,68131,,No,Nonprofit,N/A,Educational Support,Primary,Greater Omaha Attendance and Learning Services
Greater Omaha Chamber of Commerce,1301 Harney St,Omaha,NE,68102,,No,Nonprofit,N/A,Economic Sufficiency,Primary,Greater Omaha Chamber of Commerce
Green Bellevue,4522 Borman Street,Bellevue,NE,68157,https://sites.google.com/a/greenbellevue.org/green-bellevue/,No,Nonprofit,N/A,Environmental Stewardship,Primary,Green Bellevue
Greenwood Humane Society,239 Wilbanks Cir,Greenwood,SC,29649,,No,Nonprofit,N/A,Environmental Stewardship,Primary,Greenwood Humane Society
Grief's Journey,7811 Farnam Dr,Omaha,NE,68114,griefsjourney.org,No,Nonprofit,N/A,Health and Wellness,Primary,Grief's Journey
Habitat for Humanity: Council Bluffs,1228 South Main Street,Council Bluffs,IA,51503,,No,Nonprofit,N/A,Economic Sufficiency,Primary,Habitat for Humanity: Council Bluffs
Habitat for Humanity: Omaha,3931 N. 21st Street,Omaha,NE,68110,,No,Nonprofit,N/A,Economic Sufficiency,Primary,Habitat for Humanity: Omaha
Habitat Omaha ReStore,1701 N 24th St,Omaha,NE,68110,https://www.habitat.org/,No,Nonprofit,N/A,Economic Sufficiency,Primary,Habitat Omaha ReStore
Harvey Oakes Elementary,15228 Shirley St,Omaha,NE,68144,harveyoaks.mps.org,No,Nonprofit,N/A,Educational Support,Primary,Harvey Oakes Elementary
Heart Ministry Center,2222 Binney Street,Omaha,NE,68110,,No,Nonprofit,N/A,Economic Sufficiency,Primary,Heart Ministry Center
Heartland B-cycle,1085 Jackson Street,Omaha,NE,68102,https://heartland.bcycle.com/,No,Nonprofit,N/A,Environmental Stewardship,Primary,Heartland B-cycle
Heartland Equine Therapeutic Riding Academy,10130 S. 222nd Street,Gretna,NE,68028,,No,Nonprofit,N/A,Health and Wellness,Primary,Heartland Equine Therapeutic Riding Academy
Heartland Family Services,2101 S 42nd St,Omaha,NE,68105,heartlandfamilyservices.org,No,Nonprofit,N/A,Economic Sufficiency,Primary,Heartland Family Services
Heartland Hope Mission,20210 U St,Omaha,NE,68107,heartlandhopemission.org,No,Nonprofit,N/A,Economic Sufficiency,Primary,Heartland Hope Mission
Heartland Workers Center,49235 24th St,Omaha,NE,68107,heartlandworkercenter.org,No,Nonprofit,N/A,Social Justice,Primary,Heartland Workers Center
Henry Doorly Zoo & Aquarium,3701 S 10th Street,Omaha,NE,68107,,No,Nonprofit,N/A,Educational Support,Primary,Henry Doorly Zoo & Aquarium
Heron Haven,11809 Old Maple Rd,Omaha,NE,68164,heronhaven.org,No,Nonprofit,N/A,Environmental Stewardship,Primary,Heron Haven
Hope Center for Kids,2200 North 20th Street,Omaha,NE,68110,,No,Nonprofit,N/A,Educational Support,Primary,Hope Center for Kids
Humane Society of Pinellas,3040 State Road 590,Clearwater,FL,33759,,No,Nonprofit,N/A,Environmental Stewardship,Primary,Humane Society of Pinellas
Humane Society of the Pikes Peak Region,610 Abbot Ln,Colorado Springs,CO,80905,,No,Nonprofit,N/A,Environmental Stewardship,Primary,Humane Society of the Pikes Peak Region
Humane Society of the Pikes Peak Region: Pueblo Animal Services,4600 Eagleridge Pl,Pueblo,CA,81008,,No,Nonprofit,N/A,Environmental Stewardship,Primary,Humane Society of the Pikes Peak Region: Pueblo Animal Services
Humanities Nebraska,"215 Centennial Mall South, Suite 330",Lincoln,NE,68508,http://humanitiesnebraska.org/,No,Nonprofit,N/A,Educational Support,Primary,Humanities Nebraska
Hunger Collaborative,10525 J St.,Omaha,NE,68127,togetheromaha.org,No,Nonprofit,N/A,Health and Wellness,Primary,Hunger Collaborative
Hunger Free Heartland,13911 Gold Cir Ste. 120,Omaha,NE,68144,https://hungerfreeheartland.org/,Yes,Nonprofit,N/A,Educational Support,Primary,Hunger Free Heartland
ICAN,14217 Dayton Cir #5,Omaha,NE,68137,icanglobal.net,No,Nonprofit,N/A,Educational Support,Primary,ICAN
"Imagine, A Center for Coping with Loss",244 Sheffield St,Mountainside,NJ,7092,,No,Nonprofit,N/A,Health and Wellness,Primary,"Imagine, A Center for Coping with Loss"
Immanuel Village Senior Living,6803 N 68th Plaza,Omaha,NE,68152,www.immanuel.com/community/immanuel-village,No,Nonprofit,N/A,Health and Wellness,Primary,Immanuel Village Senior Living
Inclusive Communities (IC),"6400 South, University Drive Road North",Omaha,NE,68182,http://www.inclusive-communities.org/,Yes,Nonprofit,N/A,Social Justice,Primary,Inclusive Communities (IC)
inCOMMON Community Development,1340 Park Avenue,Omaha,NE,68105,,No,Nonprofit,N/A,Economic Sufficiency,Primary,inCOMMON Community Development
Institute for Holocaust Education,333 South 132nd Street,Omaha,NE,68154,http://www.ihene.org/,No,Nonprofit,N/A,Educational Support,Primary,Institute for Holocaust Education
Institute for Public Leaders,3647 Lafayette Ave,Omaha,NE,68131,iplomaha.org,No,Nonprofit,N/A,Educational Support,Primary,Institute for Public Leaders
Intercultural Senior Center,3010 R St.,Omaha,NE,68107,interculturalseniorcenter.org,No,Nonprofit,N/A,International Service,Primary,Intercultural Senior Center
Islamic Center of Omaha,3511 N 73rd Street,Omaha,NE,68134,https://www.icomaha.org/?fbclid=IwAR1P-0sy6cG81omm-_cxK4mu4ZGNCrf58cq1LLLpt4cvlbaXUoJvE4W-nrc,No,Nonprofit,N/A,International Service,Primary,Islamic Center of Omaha
Jacksonville Humane Society,8464 Beach Blvd,Jacksonville,FL,32216,,No,Nonprofit,N/A,Environmental Stewardship,Primary,Jacksonville Humane Society
Jewish Community Center,333 S 132nd ST,Omaha,NE,68154,www.jewishomaha.org/jcc/,No,Nonprofit,N/A,Health and Wellness,Primary,Jewish Community Center
Josie Harper Hospice House,7415 Cedar Street,Omaha,NE,68124,http://www.hospicehouseomaha.org/Site/Welcome.html,No,Nonprofit,N/A,Health and Wellness,Primary,Josie Harper Hospice House
Josie Harper House,7415 Cedar Street,Omaha,NE,68124,http://www.hospicehouseomaha.org/Site/Welcome.html,No,Nonprofit,N/A,Health and Wellness,Primary,Josie Harper House
Joslyn Art Museum,2200 Dodge St,Omaha,NE,68102,joslyn.org,No,Nonprofit,N/A,Educational Support,Primary,Joslyn Art Museum
Junior Achievement of Omaha,13506 W Maple Rd,Omaha,NE,68164,juniorachievement.org,No,Nonprofit,N/A,Educational Support,Primary,Junior Achievement of Omaha
Justice For Our Neighbors (JFON),2414 E St,Omaha,NE,68107,http://jfon-ne.org/,No,Nonprofit,N/A,Social Justice,Primary,Justice For Our Neighbors (JFON)
Kaneko,1111 Jones St,Omaha,NE,68102,thekaneko.org,No,Nonprofit,N/A,Educational Support,Primary,Kaneko
Keep Omaha Beautiful,1819 Farnam St,Omaha,NE,68183,keepomahabeautiful.org,No,Nonprofit,N/A,Environmental Stewardship,Primary,Keep Omaha Beautiful
Kids Can,4860 Q St,Omaha,NE,68117,kidscanomaha.org,No,Nonprofit,N/A,Educational Support,Primary,Kids Can
Kiewit Middle School,1560 Howard St,Omaha,NE,68118,kms.mps.org,No,K-12,Primary,Educational Support,Primary,Kiewit Middle School
La Vista Public Library,9110 Giles Rd,La Vista,NE,68128,cityoflavista.org/library,No,Nonprofit,N/A,Educational Support,Primary,La Vista Public Library
Lauritzen Gardens,100 Bancroft,Omaha,NE,68108,lauritzengardens.org,No,Nonprofit,N/A,Environmental Stewardship,Primary,Lauritzen Gardens
League of Women Voters,115 S 49th Ave,Omaha,NE,68132,https://www.lwv.org/,No,Nonprofit,N/A,Educational Support,Primary,League of Women Voters
Learning Community Center of North Omaha,1612 N 24th St,Omaha,NE,68110,www.learningcommunityds.org,No,Nonprofit,N/A,Educational Support,Primary,Learning Community Center of North Omaha
Learning Community Center of South Omaha,2302 M St,Omaha,NE,68107,learningcommunityds.org,No,Nonprofit,N/A,Educational Support,Primary,Learning Community Center of South Omaha
Legal Aid of Nebraska,209 S 19th St #200,Omaha,NE,68102,legalaideofnebraska.org,No,Nonprofit,N/A,Economic Sufficiency,Primary,Legal Aid of Nebraska
Lewis and Clark Middle School,6901 Burt St,Omaha,NE,68132,lewisandclark.ops.org,No,K-12,Primary,Educational Support,Primary,Lewis and Clark Middle School
Literacy Center of the Midlands,324 S 72nd Street,Omaha,NE,68114,,No,Nonprofit,N/A,Educational Support,Primary,Literacy Center of the Midlands
Live Well Omaha,"6400 South, University Drive Road North",Omaha,NE,68182,http://livewellomaha.org/,Yes,Nonprofit,N/A,Health and Wellness,Primary,Live Well Omaha
Los Angeles County Department of Animal Care and Control,5898 Cherry Avenue,Long Beach,CA,90805,,No,Nonprofit,N/A,Environmental Stewardship,Primary,Los Angeles County Department of Animal Care and Control
Love's Jazz and Art Center,"2219, 2510 N 24th Street",Omaha,NE,68110,https://www.facebook.com/lovesjazzandartcenter,No,Nonprofit,N/A,Educational Support,Primary,Love's Jazz and Art Center
Lutheran Family Services,124 S 24th St Ste 100,Omaha,NE,68102,lfsneb.org,No,Nonprofit,N/A,Economic Sufficiency,Primary,Lutheran Family Services
MAD DADS,3026 4th Avenue S.,Minneapolis,MN,55408,http://www.maddads.com/,Yes,Nonprofit,N/A,Social Justice,Primary,MAD DADS
Malcolm X Foundation,3448 Evans St,Omaha,NE,68111,malcolmxfoundation.org,No,Nonprofit,N/A,Social Justice,Primary,Malcolm X Foundation
Malcolm X Memorial Foundation,3448 Evans St,Omaha,NE,68111,http://malcolmxfoundation.org/,No,Nonprofit,N/A,Educational Support,Primary,Malcolm X Memorial Foundation
Marconi Institute for Creativity,"Via Celestini, 1",Sasso Marconi BO,Italy,40037,http://mic.fgm.it/,No,Nonprofit,N/A,Educational Support,Primary,Marconi Institute for Creativity
Marquis Place Assisted Living,20800 West Maple Road,Elkhorn,NE,68022,https://www.capitalsenior.com/marquisplaceofelkhorn/,No,Nonprofit,N/A,Health and Wellness,Primary,Marquis Place Assisted Living
Mayor's Commission for Citizens with Disabilities (MCCD),"1819 Farnam Street, Suite 300",Omaha,NE,68183,https://humanrights.cityofomaha.org/disabilities-comm-mccd,No,Nonprofit,N/A,Educational Support,Primary,Mayor's Commission for Citizens with Disabilities (MCCD)
McGill University,845 Sherbrooke Street W,Montreal,Quebec,H3A 0G4,https://www.mcgill.ca/,No,Higher Education Institution,College,Educational Support,Primary,McGill University
McMillan Middle School,3802 Redick Dr,Omaha,NE,68112,mcmillan.ops.org,No,K-12,Primary,Educational Support,Primary,McMillan Middle School
Mercy Housing,7262 Mercy Rd,Omaha,NE,68124,mercyhousing.org,No,Nonprofit,N/A,Economic Sufficiency,Primary,Mercy Housing
Metro Area Continuum of Care for the Homeless (MACCH),"6400 South, University Drive Road North",Omaha,NE,68182,http://www.endhomelessnesstoday.org/index.html,Yes,Nonprofit,N/A,Economic Sufficiency,Primary,Metro Area Continuum of Care for the Homeless (MACCH)
Metro Transit Omaha,2222 Cuming Street,Omaha,NE,68102,http://www.ometro.com/,No,Nonprofit,N/A,Environmental Stewardship,Primary,Metro Transit Omaha
Metropolitan Area Planning Agency (MAPA),2222 Cuming St,Omaha,NE,68102,http://mapacog.org/,No,Nonprofit,N/A,Environmental Stewardship,Primary,Metropolitan Area Planning Agency (MAPA)
Midland University,900 North Clarkson,Fremont,NE,68025,https://www.midlandu.edu/,No,Higher Education Institution,College,Educational Support,Primary,Midland University
Midlands Mentoring Partnership,115 S 49th Ave,Omaha,NE,68132,https://mmpomaha.org,No,Nonprofit,N/A,Educational Support,Primary,Midlands Mentoring Partnership
Midlands Real Estate,11535 S 36th St,Bellevue,NE,68123,https://midlandsrealestate.com,No,Nonprofit,N/A,Economic Sufficiency,Primary,Midlands Real Estate
Millard Public Schools,56065 147th St,Omaha,NE,68137,mpsomaha.org,No,K-12,Primary,Educational Support,Primary,Millard Public Schools
"Mission Zero, Interface",2859 Paces Ferry Rd SE,Atlanta,GA,30339,http://www.interface.com/EU/en-GB/about/index/Mission-Zero-en_GB,No,Nonprofit,N/A,Environmental Stewardship,Primary,"Mission Zero, Interface"
Mode Shift Omaha,"6400 South, University Drive Road North",Omaha,NE,68182,https://modeshiftomaha.org/,Yes,Nonprofit,N/A,Environmental Stewardship,Primary,Mode Shift Omaha
Monson & Holloway Law Office,108 Oak St,Laurel,NE,68745,www.monsonholloway.com,No,Business,N/A,Social Justice,Primary,Monson & Holloway Law Office
Morrissey Housing,4940 N 118th St,Omaha,NE,68164,www.morrisseyengineering.com/contact,No,Nonprofit,N/A,Environmental Stewardship,Primary,Morrissey Housing
Mourning Hope Grief Center,4919 Baldwin Ave,Lincoln,NE,68504,,No,Nonprofit,N/A,Health and Wellness,Primary,Mourning Hope Grief Center
Mozilla Foundation,331 E Evelyn Ave,Mountain View,CA,94041,https://www.mozilla.org/en-US/,No,Nonprofit,N/A,Educational Support,Primary,Mozilla Foundation
National Council for the Social Studies,"8555 16th St, Suite 500",Silver Spring,MD,20910,https://www.socialstudies.org/,No,Nonprofit,N/A,Educational Support,Primary,National Council for the Social Studies
"Native Indian Centered Education Program (N.I.C.E.), Omaha Public Schools (OPS)",3215 Cuming Street,Omaha,NE,68131,https://district.ops.org/DEPARTMENTS/CurriculumandInstructionSupport/NativeIndianCenteredEducation/Mission.aspx,No,Nonprofit,N/A,Educational Support,Primary,"Native Indian Centered Education Program (N.I.C.E.), Omaha Public Schools (OPS)"
Nebraska 4-H,8015 W Center Rd,Omaha,NE,68124,https://extension.unl.edu/statewide/douglas-sarpy/douglas-sarpy-4-h/,No,Nonprofit,N/A,Educational Support,Primary,Nebraska 4-H
Nebraska AIDS Project,250 S 77th St,Omaha,NE,68114,hap.org,No,Nonprofit,N/A,Health and Wellness,Primary,Nebraska AIDS Project
Nebraska Appleseed,826 P St 3rd Fl,Lincoln,NE,68508,https://neappleseed.org/,No,Nonprofit,N/A,Social Justice,Primary,Nebraska Appleseed
Nebraska Civic Engagement Table,211 N 14th St,Lincoln,NE,68508,https://www.facebook.com/nebraskatable/,Yes,Nonprofit,N/A,Educational Support,Primary,Nebraska Civic Engagement Table
Nebraska Community Blood Bank,100 N. 84th Street,Lincoln,NE,68505,https://www.ncbb.org/,No,Nonprofit,N/A,Health and Wellness,Primary,Nebraska Community Blood Bank
Nebraska Correctional Youth Facility,2610 N 20th St E,Omaha,NE,68110,corrections.nebraska.gov/facilities/Nebraska-correctional-youth-facility,No,Nonprofit,N/A,Social Justice,Primary,Nebraska Correctional Youth Facility
Nebraska Cultural Endowment,"1004 Farnam Street, Plaza Level",Omaha,NE,68102,http://nebraskaculturalendowment.org/,No,Nonprofit,N/A,Educational Support,Primary,Nebraska Cultural Endowment
Nebraska Department of Health and Human Services,301 Centennial Mall S,Lincoln,NE,68508,,No,Nonprofit,N/A,Social Justice,Primary,Nebraska Department of Health and Human Services
Nebraska Families Collaborative,2110 Papillion Parkway,Omaha,NE,68164,,No,Nonprofit,N/A,Social Justice,Primary,Nebraska Families Collaborative
Nebraska Humane Society,8929 Fort Street,Omaha,NE,68134,http://www.nehumanesociety.org/,No,Nonprofit,N/A,Environmental Stewardship,Primary,Nebraska Humane Society
Nebraska Interfaith Power & Lights,2012 S. 13th St.,Lincoln,NE,68502,https://www.nebraskaipl.org/,No,Government Agency,N/A,Educational Support,Primary,Nebraska Interfaith Power & Lights
Nebraska Legislature,1445 K Street,Lincoln,NE,68508,http://www.nebraskalegislature.gov/,No,Nonprofit,N/A,Economic Sufficiency,Primary,Nebraska Legislature
Nebraska Lutheran Outdoor Ministry,27416 Ranch Rd,Ashland,NE,68003,https://www.nlom.org/about-us,No,Nonprofit,N/A,Educational Support,Primary,Nebraska Lutheran Outdoor Ministry
Nebraska Organ Recovery,8502 W Center Rd,Omaha,NE,68124,www.nedonation.org,No,Nonprofit,N/A,Health and Wellness,Primary,Nebraska Organ Recovery
Nebraska Shakespeare,2500 California Plaza - Creighton Univ- Dept. Of Fine Arts,Omaha,NE,68178,http://www.nebraskashakespeare.com/home,Yes,Nonprofit,N/A,Educational Support,Primary,Nebraska Shakespeare
Nebraska Urban Indian Health Coalition,2240 Landon Ct,Omaha,NE,68102,,No,Nonprofit,N/A,International Service,Primary,Nebraska Urban Indian Health Coalition
Nebraska Wildlife Federation,4547 Calvert St # 12,Lincoln,NE,68506,http://www.nebraskawildlife.org/,No,Nonprofit,N/A,Environmental Stewardship,Primary,Nebraska Wildlife Federation
Nebraska Writers Collective (NWC),9712 N 34th St,Omaha,NE,68112,http://newriters.org/,Yes,Nonprofit,N/A,Educational Support,Primary,Nebraska Writers Collective (NWC)
Nebraskans for Peace,"941 O St #1026,",Lincoln,NE,68508,http://nebraskansforpeace.org/,No,Nonprofit,N/A,Social Justice,Primary,Nebraskans for Peace
Nebraskans for Solar,5016 Parker St,Omaha,NE,68104,http://www.nebraskansforsolar.org/,No,Nonprofit,N/A,Environmental Stewardship,Primary,Nebraskans for Solar
Neighborhood Action & Fact Association,2448 Manderson Street,Omaha,NE,68111,,No,Nonprofit,N/A,Environmental Stewardship,Primary,Neighborhood Action & Fact Association
Nelson Mandela Elementary School,6316 N 30th St,Omaha,NE,68111,nelsonmandelaelementary.org,No,K-12,Primary,Educational Support,Primary,Nelson Mandela Elementary School
New Visions Homeless Services,321 16th Avenue,Council Bluffs,IA,51501,,No,Nonprofit,N/A,Economic Sufficiency,Primary,New Visions Homeless Services
No More Empty Cups,1502 S 10th Street #100,Omaha,NE,68108,,No,Nonprofit,N/A,Environmental Stewardship,Primary,No More Empty Cups
No More Empty Pots,8511 N 30th St,Omaha,NE,68112,nmepomaha.org,No,Nonprofit,N/A,Health and Wellness,Primary,No More Empty Pots
Nonprofit Association of the Midlands (NAM),"11205 Wright Circle, Ste. 210",Omaha,NE,68144,https://www.nonprofitam.org/default.aspx,Yes,Nonprofit,N/A,Educational Support,Primary,Nonprofit Association of the Midlands (NAM)
North Omaha Neighborhood Alliance (YBI Awards consult),3223 N 45th Street,Omaha,NE,68104,,No,Nonprofit,N/A,Economic Sufficiency,Primary,North Omaha Neighborhood Alliance (YBI Awards consult)
NorthStar Foundation,4242 N 49th Avenue,Omaha,NE,68104,,No,Nonprofit,N/A,Educational Support,Primary,NorthStar Foundation
Nothing but Net,3223 N 45th St,Omaha,NE,68104,nothingbutnet1.org,No,Nonprofit,N/A,Health and Wellness,Primary,Nothing but Net
Notre Dame Housing,3439 State Street,Omaha,NE,68112,,No,Nonprofit,N/A,Economic Sufficiency,Primary,Notre Dame Housing
Ollie Webb Center,1941 S 42nd St #122,Omaha,NE,68105,,No,Nonprofit,N/A,Economic Sufficiency,Primary,Ollie Webb Center
Omaha Area Youth Orchestra,1905 Harney St #630,Omaha,NE,68102,oayo.org,No,Nonprofit,N/A,Educational Support,Primary,Omaha Area Youth Orchestra
Omaha BioFuels Coop,"1127 N 20 St, Florence Blvd",Omaha,NE,68102,http://www.omahabiofuelscoop.org/,No,Nonprofit,N/A,Environmental Stewardship,Primary,Omaha BioFuels Coop
Omaha Burke High School,12200 Burke Blvd,Omaha,NE,68154,burke.ops.org,No,K-12,Secondary,Educational Support,Primary,Omaha Burke High School
Omaha By Design,618 S 11th St,Omaha,NE,68102,http://www.omahabydesign.org/,Yes,Nonprofit,N/A,Economic Sufficiency,Primary,Omaha By Design
Omaha Girls Rock,"6400 South, University Drive Road North",Omaha,NE,68182,https://www.omahagirlsrock.org/,Yes,Nonprofit,N/A,Educational Support,Primary,Omaha Girls Rock
Omaha Healthy Kids Alliance,5006 Underwood Ave,Omaha,NE,68132,omahahealthykids.org,No,Nonprofit,N/A,Health and Wellness,Primary,Omaha Healthy Kids Alliance
Omaha Home for Boys,4343 N 52nd St,Omaha,NE,68104,omahahomeforboys.org,No,Nonprofit,N/A,Social Justice,Primary,Omaha Home for Boys
Omaha Housing Authority,1805 Harney St,Omaha,NE,68102,ohauthority.org,No,Nonprofit,N/A,Economic Sufficiency,Primary,Omaha Housing Authority
Omaha North High School,4410 N 36th St,Omaha,NE,68111,,No,K-12,Secondary,Educational Support,Primary,Omaha North High School
Omaha Northwest Magnet High School,8204 Crown Point Ave,Omaha,NE,68134,https://northwest.ops.org,No,K-12,Secondary,Educational Support,Primary,Omaha Northwest Magnet High School
Omaha Performing Arts,1200 Douglas St,Omaha,NE,68102,omahaperformingarts.org,No,Nonprofit,N/A,Educational Support,Primary,Omaha Performing Arts
Omaha Police Department,505 S 15th St,Omaha,NE,68102,,No,Government Agency,N/A,Social Justice,Primary,Omaha Police Department
Omaha Public Library (OPL),215 S 15th St,Omaha,NE,68102,http://www.omahapubliclibrary.org/,Yes,Nonprofit,N/A,Educational Support,Primary,Omaha Public Library (OPL)
Omaha Stormwater,1399 Harney Street,Omaha,NE,68102,https://omahastormwater.org/,No,Nonprofit,N/A,Environmental Stewardship,Primary,Omaha Stormwater
Omaha Street School,3223 N 45th St,Omaha,NE,68104,omahastreetschool.org,No,K-12,Primary,Educational Support,Primary,Omaha Street School
Omaha Symphony,1905 Harney St #400,Omaha,NE,68102,www.omahasymphony.org,No,Nonprofit,N/A,Health and Wellness,Primary,Omaha Symphony
Omaha Together One Community (OTOC),3647 Lafayette Avenue,Omaha,NE,68131,http://otoc.org/,No,Nonprofit,N/A,Educational Support,Primary,Omaha Together One Community (OTOC)
ONE Omaha,"6400 South, University Drive Road North",Omaha,NE,68182,http://oneomaha.org/,Yes,Nonprofit,N/A,Educational Support,Primary,ONE Omaha
One World Omaha,4920 S 30th St,Omaha,NE,68107,oneworldomaha.org,No,Nonprofit,N/A,Health and Wellness,Primary,One World Omaha
Open Door Mission,2828 N 23rd St,Omaha,NE,68110,opendoormission.org,No,Nonprofit,N/A,Economic Sufficiency,Primary,Open Door Mission
Opera Omaha,1850 Farnam St,Omaha,NE,68102,operaomaha.org,No,Nonprofit,N/A,Educational Support,Primary,Opera Omaha
Operation Youth Success (OYS),"6400 South, University Drive Road North",Omaha,NE,68182,http://operationyouthsuccess.org/,Yes,Nonprofit,NA,Social Justice,Primary,Operation Youth Success (OYS)
Papillion Fire Department,146 N. Adams Street,Papillion,NE,68046,,No,Nonprofit,N/A,Health and Wellness,Primary,Papillion Fire Department
Papillion Lavista Community Schools,420 S Washington St,Papillion,NE,68046,plcschools.org,No,K-12,Primary,Educational Support,Primary,Papillion Lavista Community Schools
Papillion LaVista Early Childhood Programs,1211 N Monroe St,Papillion,NE,68046,plcschools.org/domain/734,No,K-12,Early Childhood,Educational Support,Primary,Papillion LaVista Early Childhood Programs
Papio-Missouri River NRD,8901 S 154th Street,Omaha,NE,68138,https://www.papionrd.org/,No,Nonprofit,N/A,Environmental Stewardship,Primary,Papio-Missouri River NRD
Partnership 4 Kids (P4K),1004 Farnam Street Suite 200,Omaha,NE,68102,http://p4k.org/,Yes,Nonprofit,N/A,Educational Support,Primary,Partnership 4 Kids (P4K)
Pathways to Compassion Hospice,287 North 115th Street,Lincoln,NE,68154,,No,Nonprofit,N/A,Health and Wellness,Primary,Pathways to Compassion Hospice
Pet Helpers Adoption Center,1447 Folly Rd,Charleston,SC,29412,,No,Nonprofit,N/A,Environmental Stewardship,Primary,Pet Helpers Adoption Center
Pilgram Baptist,2501 Baptist St,Omaha,NE,68131,pilgrambc.org,No,Nonprofit,N/A,International Service,Primary,Pilgram Baptist
Planned Parenthood of the Heartland,3105 N 93rd Street,Omaha,NE,68134,https://www.plannedparenthood.org/planned-parenthood-heartland,No,Nonprofit,N/A,Health and Wellness,Primary,Planned Parenthood of the Heartland
Project Hope,6201 N 60th Street,Omaha,NE,68104,http://www.projecthopeomaha.org/,No,Nonprofit,N/A,Economic Sufficiency,Primary,Project Hope
Purdue University,610 Purdue Mall,West Lafayette,IN,47907,http://www.purdue.edu/,No,Higher Education Institution,College,Educational Support,Primary,Purdue University
QLI,6404 70th Plaza,Omaha,NE,68104,qliomaha.org,No,Nonprofit,N/A,Economic Sufficiency,Primary,QLI
Ralston High School,8969 Park Drive,Ralston,NE,68127,,No,K-12,Secondary,Educational Support,Primary,Ralston High School
Refugee Empowerment Center,3610 Dodge St #100,Omaha,NE,68131,,No,Nonprofit,N/A,Economic Sufficiency,Primary,Refugee Empowerment Center
Refugee Taskforce,5410 Corby Street,Omaha,NE,68104,http://bensonrefugeetf.com/,No,Nonprofit,N/A,Social Justice,Primary,Refugee Taskforce
Riverside County Department of Animal Services,6851 Van Buren Blvd,Jurupa Valley,CA,92509,,No,Nonprofit,N/A,Environmental Stewardship,Primary,Riverside County Department of Animal Services
Royale Oaks Assisted Living,4801 N 52nd St,Omaha,NE,68104,www.omahaseniorcare.org/royale-oaks-assisted-living,No,Nonprofit,N/A,Health and Wellness,Primary,Royale Oaks Assisted Living
Salvation Army,10755 Burt St,Omaha,NE,68114,https://centralusa.salvationarmy.org/omaha,No,Nonprofit,N/A,Economic Sufficiency,Primary,Salvation Army
Salvation Army Wellspring,3612 Cuming Street,Omaha,NE,68131,https://centralusa.salvationarmy.org/omaha/wellspring/,No,Nonprofit,N/A,Economic Sufficiency,Primary,Salvation Army Wellspring
Salvation Army: North Corps,2424 Pratt Street,Omaha,NE,68111,https://centralusa.salvationarmy.org/omaha,No,Nonprofit,N/A,Economic Sufficiency,Primary,Salvation Army: North Corps
Salvation Army: Omaha Kroc Center,2825 Y Street,Omaha,NE,68107,http://www.omahakroc.org/,No,Nonprofit,N/A,Economic Sufficiency,Primary,Salvation Army: Omaha Kroc Center
Sam and Frances Fried Holocaust and Genocide Education Fund,6001 Dodge Street,Omaha,NE,68182,https://holocausteducationfund.org/,No,Nonprofit,N/A,Educational Support,Primary,Sam and Frances Fried Holocaust and Genocide Education Fund
Santa Monica House (Restored Hope),1954 Jones Street,Omaha,NE,68102,,No,Nonprofit,N/A,Economic Sufficiency,Primary,Santa Monica House (Restored Hope)
Sarpy County Head Start,701 Olson Dr #111,Papillion,NE,68046,sarpyheadstart.org,No,K-12,Primary,Educational Support,Primary,Sarpy County Head Start
Science Festival Alliance,265 Massachusetts Ave.,Cambridge,MA,2139,https://sciencefestivals.org/,No,Nonprofit,N/A,Educational Support,Primary,Science Festival Alliance
Scottish Rite,202 S 20th St,Omaha,NE,68102,scottishriteomaha.org,No,Nonprofit,N/A,Educational Support,Primary,Scottish Rite
SCS ENGINEERS,14755 Grover St,Omaha,NE,68144,https://www.scsengineers.com/,No,Nonprofit,N/A,Environmental Stewardship,Primary,SCS ENGINEERS
Siena Francis House,1702 Nicholas St,Omaha,NE,68102,,No,Nonprofit,N/A,Economic Sufficiency,Primary,Siena Francis House
Sierra Club Nebraska Chapter,140 N 8th St,Lincoln,NE,68508,http://www.sierraclub.org/nebraska,No,Nonprofit,N/A,Environmental Stewardship,Primary,Sierra Club Nebraska Chapter
Social Media Research Foundation,Grand Street,Redwood City,CA,94061,https://www.smrfoundation.org/,No,Nonprofit,N/A,Educational Support,Primary,Social Media Research Foundation
Sound Health,6001 Dodge St,Omaha,NE,68182,,No,Nonprofit,N/A,Educational Support,Primary,Sound Health
South Omaha Boys and Girls Club,5051 S 22nd St,Omaha,NE,68107,bcgomaha.org,No,Nonprofit,N/A,Educational Support,Primary,South Omaha Boys and Girls Club
Spring Lake Park,4020 Hoctor Blvd,Omaha,NE,68107,,No,Nonprofit,N/A,Environmental Stewardship,Primary,Spring Lake Park
Springville Elementary,7400 N 60th St,Omaha,NE,68158,https://springville.ops.org,No,K-12,Primary,Educational Support,Primary,Springville Elementary
Start Center,6825 Pine St Suite 144,Omaha,NE,68106,startcenteromaha.org,No,Nonprofit,N/A,Economic Sufficiency,Primary,Start Center
Stephen Center,2723 Q Street,Omaha,NE,68107,,No,Nonprofit,N/A,Economic Sufficiency,Primary,Stephen Center
Suburban Rotary of Omaha,4089 S 84th St Pmb 317,Omaha,NE,68127,http://www.suburbanrotary.org/,No,Nonprofit,N/A,Educational Support,Primary,Suburban Rotary of Omaha
Sump Memorial Library,222 N Jefferson St,Papillion,NE,68046,www.papillion.org/158/Library,No,Nonprofit,N/A,Educational Support,Primary,Sump Memorial Library
Susan G. Komen Great Plains,8707 W Center Rd #101,Omaha,NE,68124,https://komengreatplains.org/,No,Nonprofit,N/A,Educational Support,Primary,Susan G. Komen Great Plains
Swope Corridor Renaissance: The Upper Room,2803 E. 51st St,Kansas City,MO,64130,,No,Nonprofit,N/A,Educational Support,Primary,Swope Corridor Renaissance: The Upper Room
The American Association of University Women (AAUW),"1310 L St. NW, Suite 1000",Washington,DC,20005,https://www.aauw.org/,No,Nonprofit,N/A,Social Justice,Primary,The American Association of University Women (AAUW)
The Big Garden,5602 Read St,Omaha,NE,68152,biggarden.org,No,Nonprofit,N/A,Health and Wellness,Primary,The Big Garden
"The ENDEAVOR Project, Communication Service for the Deaf, Inc. (CSD)","2028 E Ben White Blvd, #240-5250",Austin,TX,78741,http://www.projectendeavor.com/AboutUs.aspx,No,Nonprofit,N/A,Educational Support,Primary,"The ENDEAVOR Project, Communication Service for the Deaf, Inc. (CSD)"
The Hope Center,2200 N 20th St,Omaha,NE,68110,hopceenterforkids.org,No,Nonprofit,N/A,Social Justice,Primary,The Hope Center
The Indianapolis Museum of Art,4000 Michigan Rd,Indianapolis,IN,46208,https://discovernewfields.org/,No,Nonprofit,N/A,Educational Support,Primary,The Indianapolis Museum of Art
The Nature Conservancy in Nebraska,1007 Leavenworth Street,Omaha,NE,68102,https://www.nature.org/ourinitiatives/regions/northamerica/unitedstates/nebraska/index.htm?src=r.v_nebraska.local.na.ne,No,Nonprofit,N/A,Environmental Stewardship,Primary,The Nature Conservancy in Nebraska
The Set Me Free Project,6505 N 159th Avenue Cir,Omaha,NE,68116,https://www.setmefreeproject.net/,No,Nonprofit,N/A,Social Justice,Primary,The Set Me Free Project
The Simple Foundation,3157 Farnam Street Ste. 7104,Omaha,NE,68131,https://www.thesimplefoundation.org/#homeheader,Yes,Nonprofit,,Educational Support,Primary,The Simple Foundation
Together a Greater Good (TAGG),17117 Oak Dr Suite A,Omaha,NE,68130,www.togetheragreatergood.com,No,Nonprofit,,Economic Sufficiency,Primary,Together a Greater Good (TAGG)
Together Inc,812 S 24th St,Omaha,NE,68108,,No,Nonprofit,,Social Justice,Primary,Together Inc
Tri-Faith Initiative,"6400 South, University Drive Road North",Omaha,NE,68182,https://trifaith.org/,Yes,Nonprofit,,Educational Support,Primary,Tri-Faith Initiative
Union for Contemporary Arts,2423 N 24th St,Omaha,NE,68110,http://www.u-ca.org/,No,Nonprofit,,Educational Support,Primary,Union for Contemporary Arts
United States Holocaust Memorial Museum,100 Raoul Wallenberg Pl SW,Washington,DC,20024,https://www.ushmm.org/research/competitive-academic-programs/faculty-seminars/vectors-of-violence,No,Nonprofit,,Educational Support,Primary,United States Holocaust Memorial Museum
"University of Bern, Switzerland","Hochschulstrasse 6, 3012",Bern,Switzerland,N/A,http://www.unibe.ch/index_ger.html,No,Higher Education Institution,,Educational Support,Primary,"University of Bern, Switzerland"
University of California Santa Cruz,1156 High St,Santa Cruz,CA,95064,https://www.ucsc.edu/,No,Higher Education Institution,,Educational Support,Primary,University of California Santa Cruz
University of Colorado Boulder,2000 Colorado Ave,Boulder,CO,80305,https://www.colorado.edu/,No,Higher Education Institution,,Educational Support,Primary,University of Colorado Boulder
University of Denver,1201 Larimer Street,Denver,CO,80204,http://www.ucdenver.edu/pages/ucdwelcomepage.aspx,No,Higher Education Institution,,Educational Support,Primary,University of Denver
University of Haifa,199 Aba Khoushy Ave.,Mount Carmel,Haifa,3498838,https://www.haifa.ac.il/index.php/en/home-eng,No,Higher Education Institution,,Educational Support,Primary,University of Haifa
University of Maine at Farmington,111 South Street,Farmington,ME,4938,http://www.umf.maine.edu/,No,Higher Education Institution,,Educational Support,Primary,University of Maine at Farmington
University of Maryland,4296 Stadium Drive,College Park,MD,20742,https://www.umd.edu/,No,Higher Education Institution,,Educational Support,Primary,University of Maryland
University of Nebraska Medical Center (UNMC),42nd and Emile,Omaha,NE,68198,https://www.unmc.edu/index.html,No,Higher Education Institution,,Educational Support,Primary,University of Nebraska Medical Center (UNMC)
University of Washington,1410 NE Campus Parkway,Seattle,WA,98105,http://www.washington.edu,No,Higher Education Institution,,Educational Support,Primary,University of Washington
University of Waterloo,200 University Avenue West,Waterloo,Ontario,N2L 3G1,https://uwaterloo.ca/,No,Higher Education Institution,,Educational Support,Primary,University of Waterloo
UNL Nebraska Extension,211 Agricultural Hall,Lincoln,NE,68583,https://extension.unl.edu/,Yes,Higher Education Institution,,Educational Support,Primary,UNL Nebraska Extension
Upstream Weeds,3942 N. 66th Street,Omaha,NE,68104,http://chris0350.wixsite.com/upstream-weeds,No,Nonprofit,,Environmental Stewardship,Primary,Upstream Weeds
Upward Bound,5612 Corby Street,Omaha,NE,68104,,No,Nonprofit,,Educational Support,Primary,Upward Bound
Upward Bound Math & Science,5612 Corby Street,Omaha,NE,68104,,No,Nonprofit,,Educational Support,Primary,Upward Bound Math & Science
Urban Abbey,1026 Jackson St,Omaha,NE,68102,,No,Nonprofit,,Social Justice,Primary,Urban Abbey
Urban Bird and Nature Alliance,627 S 67th Ave,Omaha,NE,68106,http://www.theurbanbirdandnaturealliance.com/,Yes,Nonprofit,,Environmental Stewardship,Primary,Urban Bird and Nature Alliance
Urban League of Nebraska,3040 Lake St,Omaha,NE,68111,http://www.urbanleagueneb.org/,Yes,Nonprofit,,Social Justice,Primary,Urban League of Nebraska
Verdis Group,950 S. 10th St. #010,Omaha,NE,68108,http://verdisgroup.com/,No,Business,,Environmental Stewardship,Primary,Verdis Group
Veterans of Foreign Wars 247,3302 Leavenworth Street,Omaha,NE,68105,,No,Nonprofit,,International Service,Primary,Veterans of Foreign Wars 247
Veterans of Foreign Wars 2503,8904 Military Rd,Omaha,NE,68134,,No,Nonprofit,,International Service,Primary,Veterans of Foreign Wars 2503
VFW 10727,9501 S. 25th Street,Bellevue,NE,68147,,No,Nonprofit,,Economic Sufficiency,Primary,VFW 10727
Victory Riding Academy,15506 S 69th Street,Papillion,NE,68133,,No,Nonprofit,,Health and Wellness,Primary,Victory Riding Academy
Voices for Children in Nebraska,7521 Main St Ste. 103,Omaha,NE,68127,http://voicesforchildren.com/,No,Nonprofit,,Social Justice,Primary,Voices for Children in Nebraska
Washington Elementary,5519 Mayberry St,Omaha,NE,68106,washington.ops.org,No,K-12,,Educational Support,Primary,Washington Elementary
WELLCOM,6001 Dodge St,Omaha,NE,68182,,Yes,Nonprofit,,Health and Wellness,Primary,WELLCOM
Wells Fargo Foundation-Nebraska Region,10010 Regency Circle,Omaha,NE,68114,https://www.wellsfargo.com/about/corporate-responsibility/environment/,No,Nonprofit,,Educational Support,Primary,Wells Fargo Foundation-Nebraska Region
Western Carolina University,1 University Way,Cullowhee,NC,28723,https://www.wcu.edu/,No,Higher Education Institution,,Educational Support,Primary,Western Carolina University
Westside Boys and Girls Club,1414 Robertson Dr.,Omaha,NE,68114,https://bgcomaha.org/,No,K-12,,Educational Support,Primary,Westside Boys and Girls Club
Westside School District,909 S 76th St,Omaha,NE,68114,westside66.org,No,Nonprofit,,Educational Support,Primary,Westside School District
WhyArts? Inc.,1030 S 111th Plz,Omaha,NE,68154,http://www.whyartsinc.org/,Yes,Nonprofit,,Educational Support,Primary,WhyArts? Inc.
Wichita State University (WSU) Environmental Finance Center,1845 Fairmount Street,Wichita,KS,67260,http://www.wichita.edu/thisis/home/?u=EFC,No,Higher Education Institution,,Economic Sufficiency,Primary,Wichita State University (WSU) Environmental Finance Center
Women's Center for Advancement (WCA),222 S 29th St,Omaha,NE,68131,wcaomaha.org,No,Nonprofit,,Social Justice,Primary,Women's Center for Advancement (WCA)
Womens Fund of Greater Omaha,1111 N 13th St Ste 106,Omaha,NE,68102,http://www.omahawomensfund.org/,No,Nonprofit,,Educational Support,Primary,Womens Fund of Greater Omaha
Wragge's Adaptive Swimming Lessons,14439 Weir Circle,Omaha,NE,68137,www.mpsomaha.org,No,Nonprofit,,Health and Wellness,Primary,Wragge's Adaptive Swimming Lessons
Yates Community Center,3260 Davenport Street,Omaha,NE,68131,,No,Nonprofit,,International Service,Primary,Yates Community Center
"Yates Educational Community Partnership (ECP), Omaha Public Schools",3260 Davenport Street,Omaha,NE,68131,https://district.ops.org/DEPARTMENTS/CurriculumandInstructionSupport/ESL/ESLPrograms/YatesCommunityCenter.aspx,No,K-12,,Educational Support,Primary,"Yates Educational Community Partnership (ECP), Omaha Public Schools"
YMCA Association,7502 Maple Street,Omaha,NE,68134,,No,Nonprofit,,Health and Wellness,Primary,YMCA Association
YMCA: Ames,3501 Ames Avenue,Omaha,NE,68111,,No,Nonprofit,,Health and Wellness,Primary,YMCA: Ames
Youth Emergency Services (YES),2679 Farnam St Ste 205,Omaha,NE,68131,http://www.yesomaha.org/,No,Nonprofit,,Social Justice,Primary,Youth Emergency Services (YES)